{"type": "FeatureCollection", "features": [{"type": "Feature", "properties": {"norad_id": 2807, "name": "OPS 7218 (TRANSIT 16)", "group": "nnss", "lat": 71.1153891577388, "lon": 172.85300038502928, "alt_km": 1046.6846887062766, "timestamp": "2025-12-18T23:35:49.328630+00:00", "meta": {"OBJECT_NAME": "OPS 7218 (TRANSIT 16)", "OBJECT_ID": "1967-048A", "EPOCH": "2025-12-18T13:01:09.019200", "MEAN_MOTION": 13.50723435, "ECCENTRICITY": 0.00221223, "INCLINATION": 89.6731, "RA_OF_ASC_NODE": 353.8238, "ARG_OF_PERICENTER": 98.56, "MEAN_ANOMALY": 28.3474, "EPHEMERIS_TYPE": 0, "CLASSIFICATION_TYPE": "U", "NORAD_CAT_ID": 2807, "ELEMENT_SET_NO": 999, "REV_AT_EPOCH": 88354, "BSTAR": 0.00016415481, "MEAN_MOTION_DOT": 1.16e-06, "MEAN_MOTION_DDOT": 0}, "tle": {"line1": "1 02807U 67048A   25352.54246550  .00000116  00000+0  16415-3 0  9997", "line2": "2 02807  89.6731 353.8238 0022122  98.5600  28.3474 13.50723435883541"}}, "geometry": {"type": "Point", "coordinates": [172.85300038502928, 71.1153891577388]}}, {"type": "Feature", "properties": {"norad_id": 2965, "name": "OPS 4947 (TRANSIT 17)", "group": "nnss", "lat": -54.84183934606942, "lon": -154.97356611399138, "alt_km": 1033.8703691786677, "timestamp": "2025-12-18T23:35:49.328652+00:00", "meta": {"OBJECT_NAME": "OPS 4947 (TRANSIT 17)", "OBJECT_ID": "1967-092A", "EPOCH": "2025-12-18T14:24:36.470304", "MEAN_MOTION": 13.53455032, "ECCENTRICITY": 0.00465743, "INCLINATION": 89.2491, "RA_OF_ASC_NODE": 23.9887, "ARG_OF_PERICENTER": 217.0277, "MEAN_ANOMALY": 313.5799, "EPHEMERIS_TYPE": 0, "CLASSIFICATION_TYPE": "U", "NORAD_CAT_ID": 2965, "ELEMENT_SET_NO": 999, "REV_AT_EPOCH": 87176, "BSTAR": 0.00020797223, "MEAN_MOTION_DOT": 1.52e-06, "MEAN_MOTION_DDOT": 0}, "tle": {"line1": "1 02965U 67092A   25352.60042211  .00000152  00000+0  20797-3 0  9994", "line2": "2 02965  89.2491  23.9887 0046574 217.0277 313.5799 13.53455032871763"}}, "geometry": {"type": "Point", "coordinates": [-154.97356611399138, -54.84183934606942]}}, {"type": "Feature", "properties": {"norad_id": 3133, "name": "OPS 7034 (TRANSIT 18)", "group": "nnss", "lat": -18.859795957189846, "lon": -86.33380739011695, "alt_km": 1126.0997348891915, "timestamp": "2025-12-18T23:35:49.328666+00:00", "meta": {"OBJECT_NAME": "OPS 7034 (TRANSIT 18)", "OBJECT_ID": "1968-012A", "EPOCH": "2025-12-18T13:52:52.694688", "MEAN_MOTION": 13.51567011, "ECCENTRICITY": 0.0074419, "INCLINATION": 90.0282, "RA_OF_ASC_NODE": 273.6554, "ARG_OF_PERICENTER": 152.2844, "MEAN_ANOMALY": 20.5729, "EPHEMERIS_TYPE": 0, "CLASSIFICATION_TYPE": "U", "NORAD_CAT_ID": 3133, "ELEMENT_SET_NO": 999, "REV_AT_EPOCH": 56997, "BSTAR": 0.00013973031, "MEAN_MOTION_DOT": 1.02e-06, "MEAN_MOTION_DDOT": 0}, "tle": {"line1": "1 03133U 68012A   25352.57838767  .00000102  00000+0  13973-3 0  9993", "line2": "2 03133  90.0282 273.6554 0074419 152.2844  20.5729 13.51567011569977"}}, "geometry": {"type": "Point", "coordinates": [-86.33380739011695, -18.859795957189846]}}, {"type": "Feature", "properties": {"norad_id": 4507, "name": "NNSS 19 (TRANSIT 19)", "group": "nnss", "lat": -51.788793550727874, "lon": -125.45520159579205, "alt_km": 967.6447689462866, "timestamp": "2025-12-18T23:35:49.328680+00:00", "meta": {"OBJECT_NAME": "NNSS 19 (TRANSIT 19)", "OBJECT_ID": "1970-067A", "EPOCH": "2025-12-18T14:57:46.786752", "MEAN_MOTION": 13.51316258, "ECCENTRICITY": 0.01702806, "INCLINATION": 90.0052, "RA_OF_ASC_NODE": 234.538, "ARG_OF_PERICENTER": 276.1673, "MEAN_ANOMALY": 82.0103, "EPHEMERIS_TYPE": 0, "CLASSIFICATION_TYPE": "U", "NORAD_CAT_ID": 4507, "ELEMENT_SET_NO": 999, "REV_AT_EPOCH": 72301, "BSTAR": 0.00013190051, "MEAN_MOTION_DOT": 1.01e-06, "MEAN_MOTION_DDOT": 0}, "tle": {"line1": "1 04507U 70067A   25352.62345818  .00000101  00000+0  13190-3 0  9998", "line2": "2 04507  90.0052 234.5380 0170280 276.1673  82.0103 13.51316258723011"}}, "geometry": {"type": "Point", "coordinates": [-125.45520159579205, -51.788793550727874]}}, {"type": "Feature", "properties": {"norad_id": 6909, "name": "NNSS 20 (TRANSIT 20)", "group": "nnss", "lat": 67.04767481487178, "lon": 74.6208155489238, "alt_km": 917.5428722126553, "timestamp": "2025-12-18T23:35:49.328691+00:00", "meta": {"OBJECT_NAME": "NNSS 20 (TRANSIT 20)", "OBJECT_ID": "1973-081A", "EPOCH": "2025-12-18T10:48:20.038752", "MEAN_MOTION": 13.71437064, "ECCENTRICITY": 0.01565057, "INCLINATION": 89.8562, "RA_OF_ASC_NODE": 254.9686, "ARG_OF_PERICENTER": 61.4099, "MEAN_ANOMALY": 300.271, "EPHEMERIS_TYPE": 0, "CLASSIFICATION_TYPE": "U", "NORAD_CAT_ID": 6909, "ELEMENT_SET_NO": 999, "REV_AT_EPOCH": 80439, "BSTAR": 0.00023197604, "MEAN_MOTION_DOT": 2.39e-06, "MEAN_MOTION_DDOT": 0}, "tle": {"line1": "1 06909U 73081A   25352.45023193  .00000239  00000+0  23198-3 0  9996", "line2": "2 06909  89.8562 254.9686 0156505  61.4099 300.2710 13.71437064804398"}}, "geometry": {"type": "Point", "coordinates": [74.6208155489238, 67.04767481487178]}}, {"type": "Feature", "properties": {"norad_id": 10457, "name": "TRANSAT", "group": "nnss", "lat": -79.31377750734104, "lon": -99.7577160005218, "alt_km": 1082.7881849641872, "timestamp": "2025-12-18T23:35:49.328702+00:00", "meta": {"OBJECT_NAME": "TRANSAT", "OBJECT_ID": "1977-106A", "EPOCH": "2025-12-18T15:47:30.310080", "MEAN_MOTION": 13.48944451, "ECCENTRICITY": 0.00259572, "INCLINATION": 89.6481, "RA_OF_ASC_NODE": 78.3875, "ARG_OF_PERICENTER": 172.4987, "MEAN_ANOMALY": 308.1044, "EPHEMERIS_TYPE": 0, "CLASSIFICATION_TYPE": "U", "NORAD_CAT_ID": 10457, "ELEMENT_SET_NO": 999, "REV_AT_EPOCH": 36823, "BSTAR": 9.8816939e-05, "MEAN_MOTION_DOT": 7.2e-07, "MEAN_MOTION_DDOT": 0}, "tle": {"line1": "1 10457U 77106A   25352.65798970  .00000072  00000+0  98817-4 0  9991", "line2": "2 10457  89.6481  78.3875 0025957 172.4987 308.1044 13.48944451368234"}}, "geometry": {"type": "Point", "coordinates": [-99.7577160005218, -79.31377750734104]}}, {"type": "Feature", "properties": {"norad_id": 12458, "name": "NOVA 1", "group": "nnss", "lat": -55.7241789215209, "lon": 91.08086567674052, "alt_km": 1189.0595386594568, "timestamp": "2025-12-18T23:35:49.328713+00:00", "meta": {"OBJECT_NAME": "NOVA 1", "OBJECT_ID": "1981-044A", "EPOCH": "2025-12-18T13:02:49.615584", "MEAN_MOTION": 13.23278951, "ECCENTRICITY": 0.0015892, "INCLINATION": 89.8528, "RA_OF_ASC_NODE": 91.3032, "ARG_OF_PERICENTER": 89.7595, "MEAN_ANOMALY": 281.8313, "EPHEMERIS_TYPE": 0, "CLASSIFICATION_TYPE": "U", "NORAD_CAT_ID": 12458, "ELEMENT_SET_NO": 999, "REV_AT_EPOCH": 15263, "BSTAR": 0.00010892509, "MEAN_MOTION_DOT": 5.5e-07, "MEAN_MOTION_DDOT": 0}, "tle": {"line1": "1 12458U 81044A   25352.54362981  .00000055  00000+0  10893-3 0  9995", "line2": "2 12458  89.8528  91.3032 0015892  89.7595 281.8313 13.23278951152632"}}, "geometry": {"type": "Point", "coordinates": [91.08086567674052, -55.7241789215209]}}, {"type": "Feature", "properties": {"norad_id": 15362, "name": "NOVA 3", "group": "nnss", "lat": 8.215353036585823, "lon": -99.37409834669812, "alt_km": 1192.8890975913391, "timestamp": "2025-12-18T23:35:49.328723+00:00", "meta": {"OBJECT_NAME": "NOVA 3", "OBJECT_ID": "1984-110A", "EPOCH": "2025-12-18T11:53:45.723840", "MEAN_MOTION": 13.23045138, "ECCENTRICITY": 0.0030097, "INCLINATION": 90.1223, "RA_OF_ASC_NODE": 80.6025, "ARG_OF_PERICENTER": 315.4521, "MEAN_ANOMALY": 55.634, "EPHEMERIS_TYPE": 0, "CLASSIFICATION_TYPE": "U", "NORAD_CAT_ID": 15362, "ELEMENT_SET_NO": 999, "REV_AT_EPOCH": 98775, "BSTAR": 0.00012274902, "MEAN_MOTION_DOT": 6e-07, "MEAN_MOTION_DDOT": 0}, "tle": {"line1": "1 15362U 84110A   25352.49566810  .00000060  00000+0  12275-3 0  9992", "line2": "2 15362  90.1223  80.6025 0030097 315.4521  55.6340 13.23045138987756"}}, "geometry": {"type": "Point", "coordinates": [-99.37409834669812, 8.215353036585823]}}, {"type": "Feature", "properties": {"norad_id": 15935, "name": "OSCAR 30", "group": "nnss", "lat": -7.004748802156157, "lon": -80.0711703014005, "alt_km": 1190.4224642548706, "timestamp": "2025-12-18T23:35:49.328734+00:00", "meta": {"OBJECT_NAME": "OSCAR 30", "OBJECT_ID": "1985-066A", "EPOCH": "2025-12-18T13:45:01.018944", "MEAN_MOTION": 13.36079187, "ECCENTRICITY": 0.01692745, "INCLINATION": 90.1656, "RA_OF_ASC_NODE": 99.9425, "ARG_OF_PERICENTER": 67.6288, "MEAN_ANOMALY": 305.3301, "EPHEMERIS_TYPE": 0, "CLASSIFICATION_TYPE": "U", "NORAD_CAT_ID": 15935, "ELEMENT_SET_NO": 999, "REV_AT_EPOCH": 96531, "BSTAR": 0.00011911364, "MEAN_MOTION_DOT": 7.6e-07, "MEAN_MOTION_DDOT": 0}, "tle": {"line1": "1 15935U 85066A   25352.57292846  .00000076  00000+0  11911-3 0  9996", "line2": "2 15935  90.1656  99.9425 0169274  67.6288 305.3301 13.36079187965310"}}, "geometry": {"type": "Point", "coordinates": [-80.0711703014005, -7.004748802156157]}}, {"type": "Feature", "properties": {"norad_id": 15936, "name": "OSCAR 24", "group": "nnss", "lat": -77.22565873036636, "lon": -88.37507934822086, "alt_km": 1259.3922429715021, "timestamp": "2025-12-18T23:35:49.328745+00:00", "meta": {"OBJECT_NAME": "OSCAR 24", "OBJECT_ID": "1985-066B", "EPOCH": "2025-12-18T13:23:15.852768", "MEAN_MOTION": 13.35936524, "ECCENTRICITY": 0.01703906, "INCLINATION": 90.1792, "RA_OF_ASC_NODE": 92.4083, "ARG_OF_PERICENTER": 74.1055, "MEAN_ANOMALY": 298.5962, "EPHEMERIS_TYPE": 0, "CLASSIFICATION_TYPE": "U", "NORAD_CAT_ID": 15936, "ELEMENT_SET_NO": 999, "REV_AT_EPOCH": 96721, "BSTAR": 9.4278742e-05, "MEAN_MOTION_DOT": 6.2e-07, "MEAN_MOTION_DDOT": 0}, "tle": {"line1": "1 15936U 85066B   25352.55782237  .00000062  00000+0  94279-4 0  9997", "line2": "2 15936  90.1792  92.4083 0170390  74.1055 298.5962 13.35936524967219"}}, "geometry": {"type": "Point", "coordinates": [-88.37507934822086, -77.22565873036636]}}]}